CIC_OEM_VERS = 2.0
CREATION_DATE = 2024-12-09T22:46:14.572491
ORIGINATOR = ISAE-SUPAERO


META_START
OBJECT_NAME = Sat
OBJECT_ID = Sat
CENTER_NAME = Earth
REF_FRAME = EME2000
TIME_SYSTEM = UTC
START_TIME = 2024-12-09T11:15:28.603
USEABLE_START_TIME = 2024-12-09T11:15:28.603
USEABLE_STOP_TIME = 2024-12-09T23:55:28.603
STOP_TIME = 2024-12-09T23:55:28.603
INTERPOLATION = lagrange
INTERPOLATION_DEGREE = 5
META_STOP



60653 40528.603 -2402.9706 -6465.193200000001 14.705252000000002 -0.9325440300000001 0.3754396 7.5322642
60653 40928.603 -2533.7952999999998 -5700.475 2929.0881 0.28929784999999997 3.3864191999999997 6.8015011
60653 41328.603 -2178.8771 -3842.9497 5280.3507 1.4564449 5.749986700000001 4.762515400000001
60653 41728.603 -1406.1063000000001 -1248.4301 6616.157700000001 2.3444936 7.0111905 1.8070139
60653 42128.603 -363.58297 1585.48 6678.893900000001 2.7832624 6.927417800000001 -1.4991519000000002
60653 42528.603 747.7178 4113.4355000000005 5458.9614 2.6867693 5.5106359000000005 -4.518377900000001
60653 42928.603 1715.6803 5850.455 3183.4058 2.0736648 3.0311500000000002 -6.6745314
60653 43328.603 2352.8517 6459.4839 292.38381 1.0599701 -0.035966034 -7.5430405
60653 43728.603 2536.4057000000003 5823.073 -2655.3265 -0.15677651 -3.0927973000000004 -6.953605400000001
60653 44128.603 2232.214 4066.88 -5091.0246 -1.3391488 -5.5450796 -5.0276337
60653 44528.603 1500.1626 1530.8445 -6549.0172 -2.2608128 -6.9277022 -2.1457245
60653 44928.603 481.72405 -1297.6065 -6753.635700000001 -2.7487225 -6.985386000000001 1.1382622
60653 45328.603 -628.50689 -3878.8365 -5667.759099999999 -2.7125373 -5.7116112999999995 4.203305500000001
60653 45728.603 -1618.815 -5720.2739 -3498.2049 -2.1584403 -3.3452282 6.4689033
60653 46128.603 -2299.6789 -6468.368 -658.341 -1.1899504 -0.33293248999999997 7.4987279000000004
60653 46528.603 -2539.9984 -5977.4728 2307.6976 0.0081283862 2.7479568 7.0891799
60653 46928.603 -2293.3333 -4340.5738 4830.0712 1.2050894 5.3031391999999995 5.316602
60653 47328.603 -1606.9873 -1871.5053 6423.954 2.1707134000000003 6.8410067 2.5225967000000002
60653 47728.603 -612.58011 956.2825300000001 6782.9913 2.7203538 7.0674934 -0.75730007
60653 48128.603 499.30005 3601.1235 5838.8347 2.7475384 5.9351975 -3.8955430000000004
60653 48528.603 1517.3618999999999 5562.137 3775.8284 2.2430361 3.6545048 -6.2772175
60653 48928.603 2240.2596000000003 6443.7124 982.9906800000001 1.3124474000000002 0.6811648800000001 -7.4590481
60653 49328.603 2533.2316 6088.5415 -1999.3289 0.13105293 -2.4210856 -7.2084042
60653 49728.603 2337.8748 4559.813 -4594.8901 -1.0779632 -5.0670918 -5.5751873
60653 50128.603 1692.8718999999999 2153.9410000000003 -6304.6848 -2.0820231 -6.743293800000001 -2.8620948
60653 50528.603 724.15652 -663.00271 -6803.2993 -2.6832026 -7.1146322 0.40676793
60653 50928.603 -383.99494 -3353.7758 -5992.0033 -2.7665783000000004 -6.113302399999999 3.5958838
60653 51328.603 -1417.7578 -5397.749900000001 -4024.1693 -2.3185848 -3.9388164000000003 6.089698500000001
60653 51728.603 -2178.7412999999997 -6402.7425 -1278.7385 -1.4239628 -1.0035455 7.412391899999999
60653 52128.603 -2520.1459 -6174.7032 1713.6591 -0.25537725 2.124387 7.304085000000001
60653 52528.603 -2376.7925 -4759.0362000000005 4375.4057 0.9593235 4.8366662 5.7902133000000005
60653 52928.603 -1777.5458 -2430.2445000000002 6196.5836 1.986639 6.6147299 3.169757
60653 53328.603 -838.6262800000001 362.94509000000005 6830.626700000001 2.6315547 7.1244686 -0.049961659
60653 53728.603 260.27991000000003 3086.9812 6158.263 2.7739266 6.274947500000001 -3.2573415
60653 54128.603 1309.4612 5221.9385 4307.8021 2.3867059 4.225858000000001 -5.845349199999999
60653 54528.603 2108.2200000000003 6358.4595 1631.6521 1.5416613000000001 1.3628917 -7.3175674
60653 54928.603 2502.9506 6276.6377 -1357.6349 0.39954397999999997 -1.7664045000000002 -7.3853785
60653 55328.603 2417.5169 4990.7206 -4085.8528 -0.81967537 -4.558205 -6.0327674
60653 55728.603 1868.4393 2747.6288 -6028.3885 -1.8808422 -6.4742777 -3.5214843
60653 56128.603 961.2891800000001 -22.103062 -6812.4615 -2.5810204 -7.148771 -0.33478638
60653 56528.603 -130.05778999999998 -2787.5321000000004 -6287.1788 -2.7867909 -6.4528524 2.9187281
60653 56928.603 -1197.1611 -5021.7114 -4556.4277 -2.4550468000000003 -4.5103235999999995 5.6125724
60653 57328.603 -2034.4496000000001 -6292.1350999999995 -1949.217 -1.6522863 -1.7043382 7.2215723
60653 57728.603 -2478.4994 -6347.1867 1033.573 -0.53420462 1.4276843 7.4504627
60653 58128.603 -2447.5122 -5185.5109 3818.1243 0.68646835 4.2856405 6.2448134
60653 58528.603 -1947.1756 -3029.3623 5868.5796 1.7742383 6.3190663 3.8405268
60653 58928.603 -1073.8553000000002 -292.88245 6791.9732 2.5212384 7.1405766999999996 0.70130805
60653 59328.603 5.0602451 2499.6466 6411.3877 2.7855325 6.5946211 -2.5737094000000003
60653 59728.603 1083.1318 4813.5819 4798.8605 2.5154650000000003 4.7817051 -5.3589513
60653 60128.603 1952.7761 6202.3240000000005 2262.9209 1.7614654 2.0465481 -7.1164495
60653 60528.603 2446.7248 6397.8166 -709.81311 0.66790669 -1.0850604000000001 -7.5035829000000005
60653 60928.603 2470.1331 5362.8919000000005 -3545.9757000000004 -0.55308624 -4.0054257 -6.4436081000000005
60653 61328.603 2015.9305 3290.5585 -5695.7958 -1.6686809 -6.1604163 -4.146315899999999
60653 61728.603 1176.387 589.82551 -6752.1698 -2.4599529 -7.1228112 -1.0530204
60653 62128.603 111.31067999999999 -2224.2354 -6510.907700000001 -2.7786484999999996 -6.7183294 2.2392963
60653 62528.603 -975.0622900000001 -4611.9623 -5018.3244 -2.5647066 -5.025628 5.1020194000000005
60653 62928.603 -1874.3651000000002 -6115.044 -2560.6443 -1.8584041 -2.3668969000000004 6.985725
60653 63328.603 -2413.8915 -6444.4103 389.89513 -0.79523307 0.74683065 7.5254602
60653 63728.603 -2490.3846000000003 -5537.6769 3265.3415 0.41899977 3.7133822000000003 6.6178936
60653 64128.603 -2089.8993 -3570.13 5514.1642 1.5501221 5.962822500000001 4.4440431
60653 64528.603 -1290.2657 -920.63561 6707.0891 2.3830134 7.0695359 1.4242627
60653 64928.603 -244.51271 1904.5025 6617.1485999999995 2.7610235 6.8270698 -1.8671370999999999
60653 65328.603 847.83609 4365.839400000001 5260.4862 2.6119345 5.2789581 -4.807145900000001
60653 65728.603 1777.9694 5991.657 2894.0169 1.9610923 2.7124304 -6.832245
60653 66128.603 2366.2606 6465.991 -29.108062999999998 0.9317131000000001 -0.38164472 -7.545236200000001
60653 66528.603 2499.1741 5695.9394 -2946.6697999999997 -0.27807783 -3.4057939000000004 -6.8032295000000005
60653 66928.603 2151.1883 3829.7524 -5295.8386 -1.433174 -5.7720093 -4.750184
60653 67328.603 1390.0823 1228.1563 -6624.9044 -2.3107131 -7.0254787 -1.7877432
60653 67728.603 362.30490000000003 -1609.3918999999999 -6680.3060000000005 -2.7444096 -6.9312116 1.5147608000000001
60653 68128.603 -734.86818 -4138.5311 -5452.0733 -2.6521054 -5.5083913 4.526382300000001
60653 68528.603 -1691.0741 -5874.027 -3175.5995000000003 -2.0508877 -3.0272007 6.6703086
60653 68928.603 -2322.6764 -6482.045099999999 -287.96788000000004 -1.0555736999999998 0.036776223000000004 7.5315981
60653 69328.603 -2508.4364 -5845.8313 2655.0755 0.14117951 3.0907673 6.9439614
60653 69728.603 -2213.3817000000004 -4088.8748 5088.3652 1.3085258 5.5472232 5.0250687
60653 70128.603 -1495.3533 -1550.5355 6546.5538 2.2230250000000003 6.9379998 2.148216
60653 70528.603 -491.98545 1283.758 6752.2481 2.7124866 7.003698900000001 -1.1364833
60653 70928.603 605.21578 3872.9592000000002 5665.999400000001 2.6844715999999997 5.7316997 -4.2075412
60653 71328.603 1586.5412 5721.1448 3493.3593 2.1422058 3.358102 -6.4795783
60653 71728.603 2263.4479 6471.957 649.68747 1.1869231 0.33279209 -7.5097518
60653 72128.603 2505.1762000000003 5978.2311 -2319.6494 0.0018197045 -2.7614074 -7.0934998
60653 72528.603 2264.9857 4334.4157000000005 -4841.6388 -1.1829735000000001 -5.3229091 -5.3098795
60653 72928.603 1589.7373 1858.0429 -6431.0718 -2.1385003 -6.8578942 -2.5074787
60653 73328.603 609.4863100000001 -974.96852 -6783.6207 -2.6828716 -7.0765887 0.77285709
60653 73728.603 -487.54598 -3621.1684 -5832.635700000001 -2.712965 -5.9388107 3.9047281
60653 74128.603 -1491.0238000000002 -5572.8559000000005 -3760.1337000000003 -2.2225066 -3.6599823000000002 6.2889156999999996
60653 74528.603 -2208.1776 -6454.4526 -963.74983 -1.3046616 -0.67579175 7.4642669
60653 74928.603 -2501.2289 -6096.304 2018.4447 -0.1366669 2.4370866 7.2019615
60653 75328.603 -2314.1562000000004 -4567.7198 4612.5408 1.0550612000000001 5.0767442 5.5571385
60653 75728.603 -1684.4227 -2165.4195 6321.7707 2.0419887 6.7388318 2.8510448000000004
60653 76128.603 -733.07085 650.4490400000001 6820.845700000001 2.6375629 7.1121360000000005 -0.39583725
60653 76528.603 358.12541 3342.1668 6015.046 2.7299360999999998 6.127863400000001 -3.5684498
60653 76928.603 1380.8088 5395.0347 4056.8516 2.3001236 3.9684832 -6.0641842
60653 77328.603 2138.219 6412.3045 1319.4515000000001 1.4284085 1.0427965 -7.4017011
60653 77728.603 2485.4811 6199.1951 -1672.6457 0.27935682 -2.0913890000000004 -7.3135745
60653 78128.603 2354.5986000000003 4793.4461 -4342.174099999999 -0.9229647 -4.8221438 -5.8152641
60653 78528.603 1771.441 2466.9901 -6175.2755 -1.9457057 -6.621764199999999 -3.2006930000000002
60653 78928.603 848.43544 -332.97358 -6820.9427000000005 -2.5939971 -7.149960699999999 0.024203573
60653 79328.603 -237.06094000000002 -3069.1944 -6156.6338 -2.7451437000000003 -6.3084214 3.2432422
60653 79728.603 -1277.0764 -5217.251 -4309.483700000001 -2.3701212999999997 -4.2563613 5.8422206
60653 80128.603 -2072.0159 -6364.1956 -1633.3085 -1.5395891 -1.3842937 7.3200196
60653 80528.603 -2469.0701000000004 -6288.9799 1357.4537 -0.4132012 1.7542796 7.3886273000000005
60653 80928.603 -2388.7576000000004 -4997.9821 4084.7067 0.79289856 4.5601237 6.0424745
60653 81328.603 -1852.2866000000001 -2752.5063999999998 6029.8964000000005 1.8447245 6.4827036 3.5276769
60653 81728.603 -960.68005 20.943035000000002 6816.383 2.540476 7.1584931 0.34164672
60653 82128.603 114.79863 2790.4794 6294.916200000001 2.7494714 6.4640836 -2.906222
60653 82528.603 1168.298 5026.1188 4565.938700000001 2.4323186000000003 4.5320393 -5.5981395
60653 82928.603 1998.0245 6299.1489 1960.26 1.6486004 1.7288884 -7.2178449
60653 83328.603 2444.6732 6364.4313 -1022.2889 0.5483324 -1.4074332 -7.4508887
60653 83728.603 2422.2595 5208.3276 -3808.7347000000004 -0.65627134 -4.2722917 -6.2531165
60653 84128.603 1936.3728999999998 3055.8333 -5864.000400000001 -1.7332839 -6.3144743 -3.8564795
60653 84528.603 1080.2996 319.05468 -6795.3189 -2.4774761 -7.1470962 -0.724682
60653 84928.603 17.888926 -2478.6351 -6425.031 -2.7483535000000003 -6.6140452 2.5466448
60653 85328.603 -1047.8457 -4802.0613 -4822.603099999999 -2.4934847 -4.8131544 5.3361191
60653 85728.603 -1912.7351 -6205.6075 -2294.6346000000003 -1.7592132999999999 -2.0841794 7.103470000000001
60653 86128.603 -2409.8245 -6415.7755 675.9763100000001 -0.68546304 1.0510854 7.506539
